CCSDS_OMM_VERS = 2.0
CREATION_DATE  = 
ORIGINATOR     = 

OBJECT_NAME    = SL-4 R/B
OBJECT_ID      = 2014-021B
CENTER_NAME    = EARTH
REF_FRAME      = TEME
TIME_SYSTEM    = UTC
MEAN_ELEMENT_THEORY = SGP/SGP4

EPOCH          = 2026-01-19T06:11:30.309216
MEAN_MOTION    = 15.37599134
ECCENTRICITY   = .00992236
INCLINATION    = 51.6058
RA_OF_ASC_NODE = 218.1324
ARG_OF_PERICENTER = 282.5226
MEAN_ANOMALY   = 76.4672

EPHEMERIS_TYPE = 0
CLASSIFICATION_TYPE = U
NORAD_CAT_ID   = 39679
ELEMENT_SET_NO = 999
REV_AT_EPOCH   = 64866
BSTAR          = .22663669E-3
MEAN_MOTION_DOT = .9606E-4
MEAN_MOTION_DDOT = 0

CCSDS_OMM_VERS = 2.0
CREATION_DATE  = 
ORIGINATOR     = 

OBJECT_NAME    = YAOGAN-29
OBJECT_ID      = 2015-069A
CENTER_NAME    = EARTH
REF_FRAME      = TEME
TIME_SYSTEM    = UTC
MEAN_ELEMENT_THEORY = SGP/SGP4

EPOCH          = 2026-01-19T14:33:03.964896
MEAN_MOTION    = 14.82927015
ECCENTRICITY   = .00024805
INCLINATION    = 98.0189
RA_OF_ASC_NODE = 47.8949
ARG_OF_PERICENTER = 118.2911
MEAN_ANOMALY   = 241.8553

EPHEMERIS_TYPE = 0
CLASSIFICATION_TYPE = U
NORAD_CAT_ID   = 41038
ELEMENT_SET_NO = 999
REV_AT_EPOCH   = 54860
BSTAR          = .11124419E-4
MEAN_MOTION_DOT = .36E-6
MEAN_MOTION_DDOT = 0

CCSDS_OMM_VERS = 2.0
CREATION_DATE  = 
ORIGINATOR     = 

OBJECT_NAME    = ASTRO-H (HITOMI)
OBJECT_ID      = 2016-012A
CENTER_NAME    = EARTH
REF_FRAME      = TEME
TIME_SYSTEM    = UTC
MEAN_ELEMENT_THEORY = SGP/SGP4

EPOCH          = 2026-01-19T12:19:50.507328
MEAN_MOTION    = 15.09616643
ECCENTRICITY   = .00098085
INCLINATION    = 31.0009
RA_OF_ASC_NODE = 313.8036
ARG_OF_PERICENTER = 199.9445
MEAN_ANOMALY   = 160.0810

EPHEMERIS_TYPE = 0
CLASSIFICATION_TYPE = U
NORAD_CAT_ID   = 41337
ELEMENT_SET_NO = 999
REV_AT_EPOCH   = 54479
BSTAR          = .18606013E-3
MEAN_MOTION_DOT = .3163E-4
MEAN_MOTION_DDOT = 0

CCSDS_OMM_VERS = 2.0
CREATION_DATE  = 
ORIGINATOR     = 

OBJECT_NAME    = HXMT (HUIYAN)
OBJECT_ID      = 2017-034A
CENTER_NAME    = EARTH
REF_FRAME      = TEME
TIME_SYSTEM    = UTC
MEAN_ELEMENT_THEORY = SGP/SGP4

EPOCH          = 2026-01-19T14:19:54.414048
MEAN_MOTION    = 15.16759183
ECCENTRICITY   = .00333845
INCLINATION    = 43.0146
RA_OF_ASC_NODE = 289.4720
ARG_OF_PERICENTER = 283.6603
MEAN_ANOMALY   = 76.0529

EPHEMERIS_TYPE = 0
CLASSIFICATION_TYPE = U
NORAD_CAT_ID   = 42758
ELEMENT_SET_NO = 999
REV_AT_EPOCH   = 47508
BSTAR          = .3623529E-3
MEAN_MOTION_DOT = .7109E-4
MEAN_MOTION_DDOT = 0

CCSDS_OMM_VERS = 2.0
CREATION_DATE  = 
ORIGINATOR     = 

OBJECT_NAME    = CZ-2C R/B
OBJECT_ID      = 2018-054D
CENTER_NAME    = EARTH
REF_FRAME      = TEME
TIME_SYSTEM    = UTC
MEAN_ELEMENT_THEORY = SGP/SGP4

EPOCH          = 2026-01-19T10:02:59.571456
MEAN_MOTION    = 15.84636182
ECCENTRICITY   = .00114865
INCLINATION    = 35.1329
RA_OF_ASC_NODE = 283.5663
ARG_OF_PERICENTER = 182.1824
MEAN_ANOMALY   = 177.8864

EPHEMERIS_TYPE = 0
CLASSIFICATION_TYPE = U
NORAD_CAT_ID   = 43521
ELEMENT_SET_NO = 999
REV_AT_EPOCH   = 42101
BSTAR          = .80598445E-3
MEAN_MOTION_DOT = .198945E-2
MEAN_MOTION_DDOT = 0

CCSDS_OMM_VERS = 2.0
CREATION_DATE  = 
ORIGINATOR     = 

OBJECT_NAME    = SAOCOM 1A
OBJECT_ID      = 2018-076A
CENTER_NAME    = EARTH
REF_FRAME      = TEME
TIME_SYSTEM    = UTC
MEAN_ELEMENT_THEORY = SGP/SGP4

EPOCH          = 2026-01-19T14:42:28.768608
MEAN_MOTION    = 14.82153706
ECCENTRICITY   = .00015294
INCLINATION    = 97.8849
RA_OF_ASC_NODE = 208.4845
ARG_OF_PERICENTER = 87.1496
MEAN_ANOMALY   = 272.9893

EPHEMERIS_TYPE = 0
CLASSIFICATION_TYPE = U
NORAD_CAT_ID   = 43641
ELEMENT_SET_NO = 999
REV_AT_EPOCH   = 39409
BSTAR          = .10802116E-3
MEAN_MOTION_DOT = .808E-5
MEAN_MOTION_DDOT = 0

CCSDS_OMM_VERS = 2.0
CREATION_DATE  = 
ORIGINATOR     = 

OBJECT_NAME    = H-2A R/B
OBJECT_ID      = 2018-084L
CENTER_NAME    = EARTH
REF_FRAME      = TEME
TIME_SYSTEM    = UTC
MEAN_ELEMENT_THEORY = SGP/SGP4

EPOCH          = 2026-01-19T11:43:13.894464
MEAN_MOTION    = 15.38961993
ECCENTRICITY   = .0026009
INCLINATION    = 98.8756
RA_OF_ASC_NODE = 226.4433
ARG_OF_PERICENTER = 192.9674
MEAN_ANOMALY   = 167.0901

EPHEMERIS_TYPE = 0
CLASSIFICATION_TYPE = U
NORAD_CAT_ID   = 43682
ELEMENT_SET_NO = 999
REV_AT_EPOCH   = 39820
BSTAR          = .52776989E-3
MEAN_MOTION_DOT = .20514E-3
MEAN_MOTION_DDOT = 0

CCSDS_OMM_VERS = 2.0
CREATION_DATE  = 
ORIGINATOR     = 

OBJECT_NAME    = SAOCOM 1B
OBJECT_ID      = 2020-059A
CENTER_NAME    = EARTH
REF_FRAME      = TEME
TIME_SYSTEM    = UTC
MEAN_ELEMENT_THEORY = SGP/SGP4

EPOCH          = 2026-01-19T15:27:24.382944
MEAN_MOTION    = 14.82152384
ECCENTRICITY   = .00013743
INCLINATION    = 97.8845
RA_OF_ASC_NODE = 207.6144
ARG_OF_PERICENTER = 89.1731
MEAN_ANOMALY   = 270.9640

EPHEMERIS_TYPE = 0
CLASSIFICATION_TYPE = U
NORAD_CAT_ID   = 46265
ELEMENT_SET_NO = 999
REV_AT_EPOCH   = 29148
BSTAR          = .10151897E-4
MEAN_MOTION_DOT = .29E-6
MEAN_MOTION_DDOT = 0

CCSDS_OMM_VERS = 2.0
CREATION_DATE  = 
ORIGINATOR     = 

OBJECT_NAME    = CSS (TIANHE)
OBJECT_ID      = 2021-035A
CENTER_NAME    = EARTH
REF_FRAME      = TEME
TIME_SYSTEM    = UTC
MEAN_ELEMENT_THEORY = SGP/SGP4

EPOCH          = 2026-01-19T00:56:12.421824
MEAN_MOTION    = 15.60669378
ECCENTRICITY   = .0010928
INCLINATION    = 41.4662
RA_OF_ASC_NODE = 149.9978
ARG_OF_PERICENTER = 313.3598
MEAN_ANOMALY   = 46.6329

EPHEMERIS_TYPE = 0
CLASSIFICATION_TYPE = U
NORAD_CAT_ID   = 48274
ELEMENT_SET_NO = 999
REV_AT_EPOCH   = 26985
BSTAR          = .25083213E-3
MEAN_MOTION_DOT = .21178E-3
MEAN_MOTION_DDOT = 0

CCSDS_OMM_VERS = 2.0
CREATION_DATE  = 
ORIGINATOR     = 

OBJECT_NAME    = COSMOS 2550
OBJECT_ID      = 2021-056A
CENTER_NAME    = EARTH
REF_FRAME      = TEME
TIME_SYSTEM    = UTC
MEAN_ELEMENT_THEORY = SGP/SGP4

EPOCH          = 2026-01-19T14:40:46.571232
MEAN_MOTION    = 15.33831281
ECCENTRICITY   = .00083551
INCLINATION    = 67.1416
RA_OF_ASC_NODE = 189.3813
ARG_OF_PERICENTER = 269.8423
MEAN_ANOMALY   = 90.1774

EPHEMERIS_TYPE = 0
CLASSIFICATION_TYPE = U
NORAD_CAT_ID   = 48865
ELEMENT_SET_NO = 999
REV_AT_EPOCH   = 25593
BSTAR          = -.480892E-6
MEAN_MOTION_DOT = -.208E-5
MEAN_MOTION_DDOT = 0

CCSDS_OMM_VERS = 2.0
CREATION_DATE  = 
ORIGINATOR     = 

OBJECT_NAME    = CZ-2C R/B
OBJECT_ID      = 2022-058K
CENTER_NAME    = EARTH
REF_FRAME      = TEME
TIME_SYSTEM    = UTC
MEAN_ELEMENT_THEORY = SGP/SGP4

EPOCH          = 2026-01-18T05:47:58.124544
MEAN_MOTION    = 15.50611391
ECCENTRICITY   = .00428145
INCLINATION    = 50.1874
RA_OF_ASC_NODE = 217.0991
ARG_OF_PERICENTER = 348.4779
MEAN_ANOMALY   = 11.5206

EPHEMERIS_TYPE = 0
CLASSIFICATION_TYPE = U
NORAD_CAT_ID   = 52794
ELEMENT_SET_NO = 999
REV_AT_EPOCH   = 20229
BSTAR          = .39440217E-3
MEAN_MOTION_DOT = .23504E-3
MEAN_MOTION_DDOT = 0

