SL-4 R/B                
1 39679U 14021B   26019.25798969  .00009606  00000+0  22664-3 0  9998
2 39679  51.6058 218.1324 0099223 282.5226  76.4672 15.37599134648663
YAOGAN-29               
1 41038U 15069A   26019.60629589  .00000036  00000+0  11124-4 0  9991
2 41038  98.0189  47.8949 0002480 118.2911 241.8553 14.82927015548601
ASTRO-H (HITOMI)        
1 41337U 16012A   26019.51377902  .00003163  00000+0  18606-3 0  9996
2 41337  31.0009 313.8036 0009808 199.9445 160.0810 15.09616643544799
HXMT (HUIYAN)           
1 42758U 17034A   26019.59715757  .00007109  00000+0  36235-3 0  9993
2 42758  43.0146 289.4720 0033384 283.6603  76.0529 15.16759183475086
CZ-2C R/B               
1 43521U 18054D   26019.41874504  .00198945  00000+0  80598-3 0  9992
2 43521  35.1329 283.5663 0011486 182.1824 177.8864 15.84636182421012
SAOCOM 1A               
1 43641U 18076A   26019.61283297  .00000808  00000+0  10802-3 0  9995
2 43641  97.8849 208.4845 0001529  87.1496 272.9893 14.82153706394090
H-2A R/B                
1 43682U 18084L   26019.48835526  .00020514  00000+0  52777-3 0  9995
2 43682  98.8756 226.4433 0026009 192.9674 167.0901 15.38961993398207
SAOCOM 1B               
1 46265U 20059A   26019.64403221  .00000029  00000+0  10152-4 0  9992
2 46265  97.8845 207.6144 0001374  89.1731 270.9640 14.82152384291484
CSS (TIANHE)            
1 48274U 21035A   26019.03903266  .00021178  00000+0  25083-3 0  9992
2 48274  41.4662 149.9978 0010928 313.3598  46.6329 15.60669378269850
COSMOS 2550             
1 48865U 21056A   26019.61165013 -.00000208  00000+0 -48089-6 0  9992
2 48865  67.1416 189.3813 0008355 269.8423  90.1774 15.33831281255933
CZ-2C R/B               
1 52794U 22058K   26018.24164496  .00023504  00000+0  39440-3 0  9993
2 52794  50.1874 217.0991 0042814 348.4779  11.5206 15.50611391202296
